{
 "type": "FeatureCollection",
 "crs": "EPSG:6676",
 "features": [
  {
   "type": "Feature",
   "geometry": {
    "type": "LineString",
    "coordinates": [
     [
      1753.5,
      3039.5,
      365.021
     ],
     [
      1758.917,
      3047.906,
      364.209
     ],
     [
      1764.334,
      3056.311,
      363.078
     ],
     [
      1769.751,
      3064.717,
      362.265
     ],
     [
      1775.168,
      3073.123,
      361.337
     ],
     [
      1780.932,
      3081.03,
      360.715
     ],
     [
      1786.425,
      3089.167,
      360.433
     ],
     [
      1792.861,
      3096.821,
      359.758
     ],
     [
      1799.297,
      3104.475,
      358.731
     ],
     [
      1805.733,
      3112.128,
      357.722
     ],
     [
      1812.169,
      3119.782,
      357.1
     ],
     [
      1818.605,
      3127.435,
      355.882
     ],
     [
      1819.5,
      3128.5,
      355.695
     ]
    ]
   },
   "properties": {
    "id": "e0",
    "road_class": "unknown",
    "width_m": 4.0,
    "grade_pct": 8.400210400966081,
    "length_m": 111.0
   }
  },
  {
   "type": "Feature",
   "geometry": {
    "type": "LineString",
    "coordinates": [
     [
      1717.5,
      2962.5,
      368.591
     ],
     [
      1721.638,
      2971.604,
      368.661
     ],
     [
      1725.776,
      2980.707,
      368.972
     ],
     [
      1729.914,
      2989.811,
      368.825
     ],
     [
      1734.052,
      2998.915,
      368.495
     ],
     [
      1738.19,
      3008.018,
      367.746
     ],
     [
      1742.328,
      3017.122,
      366.908
     ],
     [
      1742.5,
      3017.5,
      366.908
     ]
    ]
   },
   "properties": {
    "id": "e2",
    "road_class": "unknown",
    "width_m": 4.0,
    "grade_pct": 2.784835220003488,
    "length_m": 60.4
   }
  },
  {
   "type": "Feature",
   "geometry": {
    "type": "LineString",
    "coordinates": [
     [
      2724.0,
      2396.0,
      515.78
     ],
     [
      2724.0,
      2386.0,
      516.212
     ],
     [
      2724.0,
      2376.0,
      517.251
     ],
     [
      2722.08,
      2366.24,
      518.302
     ],
     [
      2718.918,
      2356.753,
      519.55
     ],
     [
      2716.355,
      2347.129,
      520.651
     ],
     [
      2720.332,
      2340.0,
      522.011
     ],
     [
      2724.0,
      2332.182,
      523.194
     ],
     [
      2724.0,
      2322.182,
      524.19
     ],
     [
      2729.296,
      2315.886,
      525.42
     ],
     [
      2732.0,
      2307.209,
      526.639
     ],
     [
      2736.277,
      2300.0,
      528.068
     ],
     [
      2746.277,
      2300.0,
      529.109
     ],
     [
      2756.277,
      2300.0,
      530.204
     ],
     [
      2766.277,
      2300.0,
      531.243
     ],
     [
      2772.0,
      2300.0,
      531.695
     ]
    ]
   },
   "properties": {
    "id": "e3",
    "road_class": "unknown",
    "width_m": 4.0,
    "grade_pct": 11.983489990234375,
    "length_m": 138.1
   }
  }
 ]
}
