{
 "type": "FeatureCollection",
 "crs": "EPSG:6676",
 "features": [
  {
   "type": "Feature",
   "geometry": {
    "type": "LineString",
    "coordinates": [
     [
      2004.0,
      3268.0,
      327.77
     ],
     [
      2013.487,
      3264.838,
      327.86
     ],
     [
      2022.978,
      3261.812,
      328.007
     ],
     [
      2032.774,
      3260.0,
      327.723
     ],
     [
      2042.774,
      3260.0,
      326.923
     ],
     [
      2052.774,
      3260.0,
      326.275
     ],
     [
      2055.597,
      3264.403,
      325.158
     ],
     [
      2048.526,
      3271.474,
      324.017
     ],
     [
      2049.895,
      3277.511,
      322.569
     ],
     [
      2048.643,
      3284.0,
      321.17
     ],
     [
      2058.643,
      3284.0,
      320.332
     ],
     [
      2065.056,
      3286.852,
      318.815
     ],
     [
      2065.104,
      3295.403,
      316.612
     ],
     [
      2073.425,
      3300.95,
      314.573
     ],
     [
      2081.812,
      3306.287,
      312.03
     ],
     [
      2090.492,
      3311.246,
      309.921
     ],
     [
      2099.946,
      3313.211,
      308.921
     ],
     [
      2109.246,
      3309.709,
      309.202
     ],
     [
      2117.673,
      3304.33,
      309.77
     ],
     [
      2116.828,
      3307.172,
      309.191
     ],
     [
      2109.756,
      3314.244,
      308.195
     ],
     [
      2108.0,
      3316.0,
      308.054
     ]
    ]
   },
   "properties": {
    "id": "e1",
    "road_class": "unknown",
    "width_m": 4.0,
    "grade_pct": 11.303177856003222,
    "length_m": 178.5
   }
  },
  {
   "type": "Feature",
   "geometry": {
    "type": "LineString",
    "coordinates": [
     [
      1644.0,
      2900.0,
      354.068
     ],
     [
      1649.547,
      2908.321,
      355.441
     ],
     [
      1655.094,
      2916.641,
      357.068
     ],
     [
      1660.262,
      2925.134,
      358.156
     ],
     [
      1664.975,
      2933.949,
      358.439
     ],
     [
      1669.972,
      2942.608,
      358.338
     ],
     [
      1675.323,
      2950.985,
      358.263
     ],
     [
      1680.87,
      2959.306,
      358.375
     ],
     [
      1686.417,
      2967.626,
      358.363
     ],
     [
      1691.964,
      2975.947,
      358.188
     ],
     [
      1697.511,
      2984.267,
      358.775
     ],
     [
      1703.058,
      2992.588,
      359.503
     ],
     [
      1708.605,
      3000.908,
      359.956
     ],
     [
      1714.152,
      3009.229,
      360.361
     ],
     [
      1719.699,
      3017.549,
      360.773
     ],
     [
      1725.246,
      3025.87,
      361.546
     ],
     [
      1730.794,
      3034.19,
      362.124
     ],
     [
      1736.341,
      3042.511,
      362.507
     ],
     [
      1741.888,
      3050.831,
      362.775
     ],
     [
      1747.435,
      3059.152,
      363.285
     ],
     [
      1752.982,
      3067.472,
      363.531
     ],
     [
      1758.529,
      3075.793,
      363.594
     ],
     [
      1764.369,
      3083.788,
      363.512
     ],
     [
      1771.136,
      3091.136,
      363.063
     ],
     [
      1778.207,
      3098.207,
      362.534
     ],
     [
      1785.278,
      3105.278,
      362.357
     ],
     [
      1792.349,
      3112.349,
      362.31
     ],
     [
      1799.42,
      3119.42,
      362.36
     ],
     [
      1806.491,
      3126.491,
      362.358
     ],
     [
      1812.0,
      3132.0,
      361.892
     ]
    ]
   },
   "properties": {
    "id": "e2",
    "road_class": "unknown",
    "width_m": 4.0,
    "grade_pct": 7.0600784481257515,
    "length_m": 287.6
   }
  }
 ]
}
