{
 "type": "FeatureCollection",
 "crs": "EPSG:6676",
 "features": [
  {
   "type": "Feature",
   "geometry": {
    "type": "LineString",
    "coordinates": [
     [
      1858.5,
      3217.5,
      24.368
     ],
     [
      1867.893,
      3214.074,
      25.504
     ],
     [
      1876.81,
      3209.56,
      26.517
     ],
     [
      1885.294,
      3204.358,
      27.114
     ],
     [
      1893.026,
      3198.287,
      27.672
     ],
     [
      1900.467,
      3191.973,
      28.521
     ],
     [
      1907.215,
      3184.593,
      29.648
     ],
     [
      1913.963,
      3177.213,
      30.729
     ],
     [
      1920.71,
      3169.832,
      32.029
     ],
     [
      1926.5,
      3163.5,
      33.234
     ]
    ]
   },
   "properties": {
    "id": "e0",
    "road_class": "unknown",
    "width_m": 4.0,
    "grade_pct": 10.032856785690347,
    "length_m": 88.1
   }
  },
  {
   "type": "Feature",
   "geometry": {
    "type": "LineString",
    "coordinates": [
     [
      1535.5,
      3305.5,
      58.551
     ],
     [
      1544.199,
      3300.568,
      57.194
     ],
     [
      1552.898,
      3295.635,
      55.907
     ],
     [
      1561.597,
      3290.703,
      54.599
     ],
     [
      1570.296,
      3285.77,
      53.471
     ],
     [
      1578.995,
      3280.838,
      52.514
     ],
     [
      1587.694,
      3275.906,
      51.421
     ],
     [
      1596.393,
      3270.973,
      50.457
     ],
     [
      1605.092,
      3266.041,
      49.482
     ],
     [
      1613.79,
      3261.109,
      48.331
     ],
     [
      1622.489,
      3256.176,
      47.209
     ],
     [
      1631.188,
      3251.244,
      45.929
     ],
     [
      1632.5,
      3250.5,
      45.742
     ]
    ]
   },
   "properties": {
    "id": "e1",
    "road_class": "unknown",
    "width_m": 4.0,
    "grade_pct": 11.487526962093808,
    "length_m": 111.5
   }
  }
 ]
}
